{
  "type": "FeatureCollection",
  "features": [
    {
      "type": "Feature",
      "properties": {
        "norad_id": 41581,
        "name": "INTELSAT 31 (IS-31)",
        "group": "intelsat",
        "lat": 0.0009865770125329582,
        "lon": 126.83619491144768,
        "alt_km": 35784.107540213896,
        "timestamp": "2025-12-18T08:58:43.059836+00:00",
        "meta_object_name": "INTELSAT 31 (IS-31)",
        "meta_object_id": "2016-035A",
        "meta_epoch": "2025-12-17T14:35:00.320640",
        "meta_mean_motion": 1.00272697,
        "meta_eccentricity": 0.00018355,
        "meta_inclination": 0.0215,
        "meta_ra_of_asc_node": 273.4234,
        "meta_arg_of_pericenter": 290.0377,
        "meta_mean_anomaly": 6.7212,
        "meta_ephemeris_type": 0,
        "meta_classification_type": "U",
        "meta_norad_cat_id": 41581,
        "meta_element_set_no": 999,
        "meta_rev_at_epoch": 3486,
        "meta_bstar": 0,
        "meta_mean_motion_dot": -1.26e-06,
        "meta_mean_motion_ddot": 0,
        "tle_line1": "1 41581U 16035A   25351.60764260 -.00000126  00000+0  00000+0 0  9999",
        "tle_line2": "2 41581   0.0215 273.4234 0001835 290.0377   6.7212  1.00272697 34862"
      },
      "geometry": {
        "type": "Point",
        "coordinates": [
          126.83619491144768,
          0.0009865770125329582
        ]
      }
    },
    {
      "type": "Feature",
      "properties": {
        "norad_id": 41747,
        "name": "INTELSAT 36 (IS-36)",
        "group": "intelsat",
        "lat": -0.034891128066403224,
        "lon": -69.62204365384437,
        "alt_km": 35782.431607511266,
        "timestamp": "2025-12-18T08:58:43.059847+00:00",
        "meta_object_name": "INTELSAT 36 (IS-36)",
        "meta_object_id": "2016-053A",
        "meta_epoch": "2025-12-17T19:52:21.823968",
        "meta_mean_motion": 1.00271258,
        "meta_eccentricity": 0.00011909,
        "meta_inclination": 0.0123,
        "meta_ra_of_asc_node": 8.954,
        "meta_arg_of_pericenter": 322.3633,
        "meta_mean_anomaly": 121.9554,
        "meta_ephemeris_type": 0,
        "meta_classification_type": "U",
        "meta_norad_cat_id": 41747,
        "meta_element_set_no": 999,
        "meta_rev_at_epoch": 3413,
        "meta_bstar": 0,
        "meta_mean_motion_dot": 1e-08,
        "meta_mean_motion_ddot": 0,
        "tle_line1": "1 41747U 16053A   25351.82803037  .00000001  00000+0  00000+0 0  9994",
        "tle_line2": "2 41747   0.0123   8.9540 0001190 322.3633 121.9554  1.00271258 34134"
      },
      "geometry": {
        "type": "Point",
        "coordinates": [
          -69.62204365384437,
          -0.034891128066403224
        ]
      }
    },
    {
      "type": "Feature",
      "properties": {
        "norad_id": 41945,
        "name": "INTELSAT 32E (IS-32E)",
        "group": "intelsat",
        "lat": 0.01863086515234407,
        "lon": 178.73343552993657,
        "alt_km": 35788.84016676377,
        "timestamp": "2025-12-18T08:58:43.059859+00:00",
        "meta_object_name": "INTELSAT 32E (IS-32E)",
        "meta_object_id": "2017-007B",
        "meta_epoch": "2025-12-17T18:15:24.217344",
        "meta_mean_motion": 1.00270449,
        "meta_eccentricity": 6.51e-05,
        "meta_inclination": 0.0291,
        "meta_ra_of_asc_node": 70.937,
        "meta_arg_of_pericenter": 319.6309,
        "meta_mean_anomaly": 286.7432,
        "meta_ephemeris_type": 0,
        "meta_classification_type": "U",
        "meta_norad_cat_id": 41945,
        "meta_element_set_no": 999,
        "meta_rev_at_epoch": 3240,
        "meta_bstar": 0,
        "meta_mean_motion_dot": -2.44e-06,
        "meta_mean_motion_ddot": 0,
        "tle_line1": "1 41945U 17007B   25351.76069696 -.00000244  00000+0  00000+0 0  9992",
        "tle_line2": "2 41945   0.0291  70.9370 0000651 319.6309 286.7432  1.00270449 32404"
      },
      "geometry": {
        "type": "Point",
        "coordinates": [
          178.73343552993657,
          0.01863086515234407
        ]
      }
    },
    {
      "type": "Feature",
      "properties": {
        "norad_id": 42818,
        "name": "INTELSAT 35E (IS-35E)",
        "group": "intelsat",
        "lat": -0.005948468074587862,
        "lon": -172.61644247393076,
        "alt_km": 35785.733001384426,
        "timestamp": "2025-12-18T08:58:43.059870+00:00",
        "meta_object_name": "INTELSAT 35E (IS-35E)",
        "meta_object_id": "2017-041A",
        "meta_epoch": "2025-12-17T18:17:53.977056",
        "meta_mean_motion": 1.00270002,
        "meta_eccentricity": 0.00018393,
        "meta_inclination": 0.0263,
        "meta_ra_of_asc_node": 8.6566,
        "meta_arg_of_pericenter": 262.1498,
        "meta_mean_anomaly": 55.8065,
        "meta_ephemeris_type": 0,
        "meta_classification_type": "U",
        "meta_norad_cat_id": 42818,
        "meta_element_set_no": 999,
        "meta_rev_at_epoch": 3099,
        "meta_bstar": 0,
        "meta_mean_motion_dot": 0,
        "meta_mean_motion_ddot": 0,
        "tle_line1": "1 42818U 17041A   25351.76243029  .00000000  00000+0  00000+0 0  9993",
        "tle_line2": "2 42818   0.0263   8.6566 0001839 262.1498  55.8065  1.00270002 30992"
      },
      "geometry": {
        "type": "Point",
        "coordinates": [
          -172.61644247393076,
          -0.005948468074587862
        ]
      }
    },
    {
      "type": "Feature",
      "properties": {
        "norad_id": 42950,
        "name": "INTELSAT 37E (IS-37E)",
        "group": "intelsat",
        "lat": -0.027421861825321303,
        "lon": -156.12328823341855,
        "alt_km": 35778.71308442938,
        "timestamp": "2025-12-18T08:58:43.059881+00:00",
        "meta_object_name": "INTELSAT 37E (IS-37E)",
        "meta_object_id": "2017-059A",
        "meta_epoch": "2025-12-17T18:22:38.523360",
        "meta_mean_motion": 1.00271247,
        "meta_eccentricity": 0.00029633,
        "meta_inclination": 0.0112,
        "meta_ra_of_asc_node": 324.2506,
        "meta_arg_of_pericenter": 292.6451,
        "meta_mean_anomaly": 87.4027,
        "meta_ephemeris_type": 0,
        "meta_classification_type": "U",
        "meta_norad_cat_id": 42950,
        "meta_element_set_no": 999,
        "meta_rev_at_epoch": 3024,
        "meta_bstar": 0,
        "meta_mean_motion_dot": -1.16e-06,
        "meta_mean_motion_ddot": 0,
        "tle_line1": "1 42950U 17059A   25351.76572365 -.00000116  00000+0  00000+0 0  9996",
        "tle_line2": "2 42950   0.0112 324.2506 0002963 292.6451  87.4027  1.00271247 30248"
      },
      "geometry": {
        "type": "Point",
        "coordinates": [
          -156.12328823341855,
          -0.027421861825321303
        ]
      }
    },
    {
      "type": "Feature",
      "properties": {
        "norad_id": 43632,
        "name": "AZERSPACE 2 (IS-38)",
        "group": "intelsat",
        "lat": -0.05256677243216662,
        "lon": -92.998674907297,
        "alt_km": 35781.32171038646,
        "timestamp": "2025-12-18T08:58:43.059892+00:00",
        "meta_object_name": "AZERSPACE 2 (IS-38)",
        "meta_object_id": "2018-074A",
        "meta_epoch": "2025-12-17T20:50:38.634144",
        "meta_mean_motion": 1.00271271,
        "meta_eccentricity": 0.00011585,
        "meta_inclination": 0.0274,
        "meta_ra_of_asc_node": 7.9271,
        "meta_arg_of_pericenter": 267.8079,
        "meta_mean_anomaly": 168.7639,
        "meta_ephemeris_type": 0,
        "meta_classification_type": "U",
        "meta_norad_cat_id": 43632,
        "meta_element_set_no": 999,
        "meta_rev_at_epoch": 2663,
        "meta_bstar": 0,
        "meta_mean_motion_dot": 0,
        "meta_mean_motion_ddot": 0,
        "tle_line1": "1 43632U 18074A   25351.86850271  .00000000  00000+0  00000+0 0  9999",
        "tle_line2": "2 43632   0.0274   7.9271 0001158 267.8079 168.7639  1.00271271 26631"
      },
      "geometry": {
        "type": "Point",
        "coordinates": [
          -92.998674907297,
          -0.05256677243216662
        ]
      }
    },
    {
      "type": "Feature",
      "properties": {
        "norad_id": 43633,
        "name": "HORIZONS-3E",
        "group": "intelsat",
        "lat": 0.02206485437730554,
        "lon": 30.897371474956756,
        "alt_km": 35786.530653171074,
        "timestamp": "2025-12-18T08:58:43.059904+00:00",
        "meta_object_name": "HORIZONS-3E",
        "meta_object_id": "2018-074B",
        "meta_epoch": "2025-12-17T20:58:44.087232",
        "meta_mean_motion": 1.00271852,
        "meta_eccentricity": 7.224e-05,
        "meta_inclination": 0.0529,
        "meta_ra_of_asc_node": 183.9113,
        "meta_arg_of_pericenter": 108.1124,
        "meta_mean_anomaly": 278.3884,
        "meta_ephemeris_type": 0,
        "meta_classification_type": "U",
        "meta_norad_cat_id": 43633,
        "meta_element_set_no": 999,
        "meta_rev_at_epoch": 2652,
        "meta_bstar": 0,
        "meta_mean_motion_dot": -5e-08,
        "meta_mean_motion_ddot": 0,
        "tle_line1": "1 43633U 18074B   25351.87412138 -.00000005  00000+0  00000+0 0  9993",
        "tle_line2": "2 43633   0.0529 183.9113 0000722 108.1124 278.3884  1.00271852 26522"
      },
      "geometry": {
        "type": "Point",
        "coordinates": [
          30.897371474956756,
          0.02206485437730554
        ]
      }
    }
  ]
}